{
    "links": {
        "self": "http://www.neowsapp.com/rest/v1/neo/3843927?api_key=iIulBulltgU6a56xZRHN4H3l9WmuAYTsLGpBGhQ2"
    },
    "id": "3843927",
    "neo_reference_id": "3843927",
    "name": "(2019 SD2)",
    "designation": "2019 SD2",
    "nasa_jpl_url": "http://ssd.jpl.nasa.gov/sbdb.cgi?sstr=3843927",
    "absolute_magnitude_h": 25.5,
    "estimated_diameter": {
        "kilometers": {
            "estimated_diameter_min": 0.0211132445,
            "estimated_diameter_max": 0.0472106499
        },
        "meters": {
            "estimated_diameter_min": 21.113244479,
            "estimated_diameter_max": 47.2106498806
        },
        "miles": {
            "estimated_diameter_min": 0.0131191578,
            "estimated_diameter_max": 0.0293353287
        },
        "feet": {
            "estimated_diameter_min": 69.2691770164,
            "estimated_diameter_max": 154.8905885541
        }
    },
    "is_potentially_hazardous_asteroid": false,
    "close_approach_data": [
        {
            "close_approach_date": "2014-10-26",
            "close_approach_date_full": "2014-Oct-26 19:32",
            "epoch_date_close_approach": 1414351920000,
            "relative_velocity": {
                "kilometers_per_second": "14.9740838095",
                "kilometers_per_hour": "53906.7017140823",
                "miles_per_hour": "33495.5280733974"
            },
            "miss_distance": {
                "astronomical": "0.3900033271",
                "lunar": "151.7112942419",
                "kilometers": "58343667.027073277",
                "miles": "36253073.6132621426"
            },
            "orbiting_body": "Earth"
        },
        {
            "close_approach_date": "2019-09-25",
            "close_approach_date_full": "2019-Sep-25 12:17",
            "epoch_date_close_approach": 1569413820000,
            "relative_velocity": {
                "kilometers_per_second": "5.5021577725",
                "kilometers_per_hour": "19807.7679809193",
                "miles_per_hour": "12307.7767212551"
            },
            "miss_distance": {
                "astronomical": "0.0745938414",
                "lunar": "29.0170043046",
                "kilometers": "11159079.788557818",
                "miles": "6933930.6499731684"
            },
            "orbiting_body": "Earth"
        }
    ],
    "orbital_data": {
        "orbit_id": "6",
        "orbit_determination_date": "2019-10-20 06:04:05",
        "first_observation_date": "2019-09-20",
        "last_observation_date": "2019-10-19",
        "data_arc_in_days": 29,
        "observations_used": 37,
        "orbit_uncertainty": "7",
        "minimum_orbit_intersection": ".0734388",
        "jupiter_tisserand_invariant": "3.921",
        "epoch_osculation": "2459000.5",
        "eccentricity": ".4117096435778939",
        "semi_major_axis": "1.828401114126748",
        "inclination": "5.510039684125311",
        "ascending_node_longitude": "185.6727934116842",
        "orbital_period": "903.0372033318207",
        "perihelion_distance": "1.075630743112201",
        "perihelion_argument": "173.8753706121092",
        "aphelion_distance": "2.581171485141296",
        "perihelion_time": "2458750.579727805752",
        "mean_anomaly": "99.63188411061439",
        "mean_motion": ".3986546718914283",
        "equinox": "J2000",
        "orbit_class": {
            "orbit_class_type": "AMO",
            "orbit_class_description": "Near-Earth asteroid orbits similar to that of 1221 Amor",
            "orbit_class_range": "1.017 AU < q (perihelion) < 1.3 AU"
        }
    },
    "is_sentry_object": false
}